address,business_area,cityname,lat,lon,name,pname,type
裕安区,,六安市,31.665812199169054,116.29394102504278,赵院水库,安徽省,地名地址信息;自然地名;湖泊
裕安区,,六安市,31.5909971958873,116.2980167213324,寨洼水库,安徽省,地名地址信息;自然地名;湖泊
裕安区,,六安市,31.586605524317473,116.31668028280221,破塘冲水库,安徽省,地名地址信息;自然地名;湖泊
裕安区,,六安市,31.90949627132788,116.28398936206385,虎头岗水库,安徽省,地名地址信息;自然地名;湖泊
裕安区,,六安市,31.798458744712946,116.46675268257604,汪冲水库,安徽省,地名地址信息;自然地名;湖泊
裕安区,,六安市,32.045438395464586,116.47169214474967,西台水库,安徽省,地名地址信息;自然地名;湖泊
裕安区,,六安市,32.021327524501324,116.44040451775676,双坝水库,安徽省,地名地址信息;自然地名;湖泊
裕安区,,六安市,32.001534289092106,116.47805697669044,丰收水库,安徽省,地名地址信息;自然地名;湖泊
裕安区,,六安市,31.603261878733964,116.32142606587057,四清水库,安徽省,地名地址信息;自然地名;湖泊
裕安区,,六安市,31.809152698018067,116.46866169680905,石塘水库,安徽省,地名地址信息;自然地名;湖泊
裕安区,,六安市,31.894554518312244,116.34575504451952,大泊水库,安徽省,地名地址信息;自然地名;湖泊
裕安区,,六安市,31.922151197347738,116.41500752502674,吴塘水库,安徽省,地名地址信息;自然地名;湖泊
裕安区,,六安市,31.925340454666376,116.38800803907591,高峰水库,安徽省,地名地址信息;自然地名;湖泊
裕安区,,六安市,31.99834951855365,116.42199873322407,丰北水库,安徽省,地名地址信息;自然地名;湖泊
裕安区,,六安市,31.937743339865527,116.2744053005947,张大塘水库,安徽省,地名地址信息;自然地名;湖泊
裕安区,,六安市,31.838665600618036,116.39948493789792,孟老庄水库,安徽省,地名地址信息;自然地名;湖泊
裕安区,,六安市,31.84272555982791,116.44632549204215,谢坝水库,安徽省,地名地址信息;自然地名;湖泊
裕安区,,六安市,31.99319382526681,116.45446807505664,贴户塘水库,安徽省,地名地址信息;自然地名;湖泊
裕安区,,六安市,31.701390571427307,116.16554760746983,九子堰水库,安徽省,地名地址信息;自然地名;湖泊
裕安区,,六安市,31.99156436295846,116.39292775330757,鹭鸶洼水库,安徽省,地名地址信息;自然地名;湖泊
裕安区,,六安市,31.499626935940245,116.22561055734882,毛狗尖水库,安徽省,地名地址信息;自然地名;湖泊
裕安区,,六安市,31.606097039012266,116.28029215347331,刀杆冲水库,安徽省,地名地址信息;自然地名;湖泊
裕安区,,六安市,31.934727239268728,116.45572083160025,公鹅包水库,安徽省,地名地址信息;自然地名;湖泊
裕安区,,六安市,31.913572217195238,116.23613828039278,六安罗集乡五里水库,安徽省,地名地址信息;自然地名;湖泊
裕安区,,六安市,31.81649456094293,116.45890852892916,二天门水库,安徽省,地名地址信息;自然地名;湖泊
霍邱县,,六安市,32.07885118898745,116.48366292394299,朱家堰水库,安徽省,地名地址信息;自然地名;湖泊
霍邱县,,六安市,32.263076473524414,116.43591089577842,上坝子水库,安徽省,地名地址信息;自然地名;自然地名
霍邱县,,六安市,32.49219816144162,115.97503219246275,园艺水库,安徽省,地名地址信息;自然地名;湖泊
霍邱县,,六安市,32.32487157201929,116.43739925178205,东风水库,安徽省,地名地址信息;地名地址信息;地名地址信息
霍邱县,,六安市,32.035487344319826,116.39974299542794,乌江水库,安徽省,地名地址信息;自然地名;湖泊
霍邱县,,六安市,32.096870113614905,116.48504401217268,民兵水库,安徽省,地名地址信息;自然地名;湖泊
霍邱县,,六安市,32.16053248317396,116.3038958839929,三流水库,安徽省,地名地址信息;自然地名;湖泊
霍邱县,,六安市,32.21456806932182,116.40560861839006,徐郢水库,安徽省,地名地址信息;自然地名;湖泊
霍邱县,,六安市,32.17085619053837,116.45094845078854,鲁冲水库,安徽省,地名地址信息;自然地名;湖泊
霍邱县,,六安市,32.28385065704815,116.166866245041,楼湾水库,安徽省,地名地址信息;自然地名;湖泊
霍邱县,,六安市,32.317163288822115,115.9771668617454,溜山水库,安徽省,地名地址信息;自然地名;湖泊
霍邱县,,六安市,32.46512845292238,116.05861107234553,薛台水库,安徽省,地名地址信息;自然地名;湖泊
霍邱县,,六安市,32.494522501608486,115.97579672817268,霍邱县园艺水库,安徽省,地名地址信息;自然地名;湖泊
霍邱县,,六安市,32.41961403015818,115.91340822203941,蝎子山水库,安徽省,地名地址信息;自然地名;湖泊
霍邱县,,六安市,32.22040957954187,115.96038928038587,龙潭水库,安徽省,地名地址信息;自然地名;河流
霍邱县,,六安市,32.279421457124144,116.41624297123697,西老荒水库,安徽省,地名地址信息;自然地名;湖泊
霍邱县,,六安市,32.217722518879114,115.96410283591375,霍邱龙潭水库,安徽省,地名地址信息;自然地名;湖泊
霍邱县,,六安市,32.14671602129821,116.4833658092313,爱国塘水库,安徽省,地名地址信息;地名地址信息;地名地址信息
霍邱县,,六安市,32.063464989421696,116.49346894938168,南坎小型水库,安徽省,地名地址信息;自然地名;湖泊
霍邱县,,六安市,32.198212124615125,116.25797320644953,老圈行水库,安徽省,地名地址信息;自然地名;湖泊
霍邱县,,六安市,32.48273783317396,115.9527421107595,龙庙岗水库,安徽省,地名地址信息;自然地名;湖泊
霍邱县,,六安市,32.02695588508166,116.45540260241123,六霍坝小型水库,安徽省,地名地址信息;自然地名;湖泊
霍邱县,,六安市,32.05461720331546,116.45064624465489,姜大塘小型水库,安徽省,地名地址信息;自然地名;湖泊
霍邱县,,六安市,32.033975828438116,116.4494329727495,松岗坝小型水库,安徽省,地名地址信息;自然地名;湖泊
金安区,,六安市,31.346085416550086,116.51483067841102,下山口水库,安徽省,地名地址信息;自然地名;湖泊
金安区,,六安市,31.742323950471956,116.6511843950066,大坝水库,安徽省,地名地址信息;自然地名;自然地名
金安区,,六安市,31.706095032406278,116.52359968999103,南湖水库,安徽省,地名地址信息;地名地址信息;地名地址信息
金安区,,六安市,31.649600247659702,116.71752447118752,新塘水库,安徽省,地名地址信息;地名地址信息;地名地址信息
金安区,,六安市,31.451034630909607,116.50493004628785,龙窝水库,安徽省,地名地址信息;地名地址信息;地名地址信息
金安区,,六安市,31.430220774896892,116.54201817515242,上堰水库,安徽省,地名地址信息;自然地名;湖泊
金安区,,六安市,31.537690469355667,116.74102496363359,友爱水库,安徽省,地名地址信息;自然地名;湖泊
金安区,,六安市,31.600741655945377,116.49748069261445,长岭水库,安徽省,地名地址信息;自然地名;湖泊
金安区,,六安市,31.51826560856583,116.47355016564957,岩湾水库,安徽省,地名地址信息;自然地名;湖泊
金安区,,六安市,31.62986285399401,116.65539887234493,江湖堰水库,安徽省,地名地址信息;自然地名;湖泊
金安区,,六安市,31.672990063660386,116.64548802924226,裤塘水库,安徽省,地名地址信息;自然地名;湖泊
金安区,,六安市,31.711086025159286,116.71845655807377,青年坝水库,安徽省,地名地址信息;自然地名;湖泊
金安区,,六安市,31.7463999725366,116.7101702388426,山北水库,安徽省,地名地址信息;自然地名;湖泊
金安区,,六安市,31.5162614502278,116.54667025169707,东方红水库,安徽省,地名地址信息;自然地名;湖泊
金安区,,六安市,31.511517234864833,116.77647787733035,金杯塘水库,安徽省,地名地址信息;自然地名;湖泊
金安区,,六安市,31.45708171894046,116.59671300566049,夹沟湾水库,安徽省,地名地址信息;自然地名;湖泊
金安区,,六安市,31.563747316413448,116.65145235602088,天河堰水库,安徽省,地名地址信息;自然地名;湖泊
金安区,,六安市,31.67937987312962,116.65572572290367,黄大塘水库,安徽省,地名地址信息;自然地名;湖泊
金安区,,六安市,31.48505986268728,116.5242919454541,龙潭河水库,安徽省,地名地址信息;自然地名;湖泊
霍山县,,六安市,31.363894317807418,116.31282282456641,团结水库,安徽省,地名地址信息;地名地址信息;地名地址信息
霍山县,,六安市,31.110501182090495,116.11639365244542,红旗水库,安徽省,地名地址信息;地名地址信息;地名地址信息
霍山县,,六安市,31.47611364839864,116.45748582294596,陆冲水库,安徽省,地名地址信息;自然地名;湖泊
霍山县,,六安市,31.488388851563606,116.45385666620048,马岩水库,安徽省,地名地址信息;自然地名;湖泊
霍山县,,六安市,31.452229734508347,116.45083684401985,胡冲水库,安徽省,地名地址信息;自然地名;湖泊
霍山县,,六安市,31.473149844435877,116.4771388808804,陆冲水库,安徽省,地名地址信息;地名地址信息;地名地址信息
霍山县,,六安市,31.473149844435877,116.4771388808804,潘冲水库,安徽省,地名地址信息;地名地址信息;地名地址信息
霍山县,,六安市,31.417144400335467,116.0739847093978,上谷水库,安徽省,地名地址信息;自然地名;自然地名
霍山县,,六安市,31.53811716622802,116.36835792348191,土门水库,安徽省,地名地址信息;自然地名;湖泊
霍山县,,六安市,31.453643804233632,116.39266957650956,断山堰水库,安徽省,地名地址信息;自然地名;湖泊
霍山县,,六安市,31.215827012094472,116.0828468498735,梯子档水库,安徽省,地名地址信息;自然地名;湖泊
霍山县,,六安市,31.52275055930333,116.39175751562954,孙家洼水库,安徽省,地名地址信息;自然地名;湖泊
霍山县,,六安市,31.503046277675775,116.40990408652529,小龙井水库,安徽省,地名地址信息;自然地名;湖泊
霍山县,,六安市,31.06960464659584,115.99958147588148,耿家坊水库,安徽省,地名地址信息;自然地名;湖泊
霍山县,,六安市,31.353382327200155,116.45072932331584,高河水库,安徽省,地名地址信息;自然地名;湖泊
霍山县,,六安市,31.452222704545996,116.45082280807641,草塘冲水库,安徽省,地名地址信息;地名地址信息;地名地址信息
霍山县,,六安市,31.364857396148114,116.49350469412877,双河口水库,安徽省,地名地址信息;自然地名;湖泊
霍山县,,六安市,31.364855785184577,116.34796463841846,东石门水库,安徽省,地名地址信息;自然地名;湖泊
霍山县,,六安市,31.528374171179042,116.41584701631675,双河埂水库,安徽省,地名地址信息;自然地名;湖泊
霍山县,,六安市,31.435986495555092,116.35805831229162,老皇寺水库,安徽省,地名地址信息;自然地名;湖泊
霍山县,,六安市,31.101894553494507,115.8928588910928,梅子湾水库,安徽省,地名地址信息;地名地址信息;地名地址信息
霍山县,,六安市,31.529695503759655,116.43275435493366,张管冲水库,安徽省,地名地址信息;自然地名;湖泊
霍山县,,六安市,31.202788526415592,115.95365832447769,乌龙顶水库,安徽省,地名地址信息;自然地名;湖泊
霍山县,,六安市,31.37215019792062,116.47969722996491,邵家湾水库,安徽省,地名地址信息;自然地名;湖泊
霍山县,,六安市,31.10459197556834,116.06083449876742,十八肖水库,安徽省,地名地址信息;自然地名;湖泊
霍山县,,六安市,31.505066880492457,116.34759678480329,高庙冲水库,安徽省,地名地址信息;自然地名;湖泊
霍山县,,六安市,31.33545013582026,116.47616074823175,四顾冲水库,安徽省,地名地址信息;自然地名;湖泊
霍山县,,六安市,31.509507960255213,116.44584219916483,观音岩水库,安徽省,地名地址信息;自然地名;湖泊
霍山县,,六安市,31.369067723786625,116.15798697754714,金家湾水库,安徽省,地名地址信息;地名地址信息;地名地址信息
霍山县,,六安市,31.21524023004122,116.35985625146729,磨子潭水库,安徽省,地名地址信息;自然地名;湖泊
霍山县,,六安市,31.3230687001616,116.27469234799561,佛子岭水库,安徽省,地名地址信息;自然地名;湖泊
070县道佛子岭风景区,,六安市,31.3230687001616,116.27469234799561,佛子岭水库(暂停开放),安徽省,风景名胜;风景名胜;风景名胜
汪家岔磨子潭水库旁,,六安市,31.22026783938796,116.36059870841143,别山湖,安徽省,风景名胜;风景名胜;风景名胜
金寨县,,六安市,31.592849485692977,115.73780309884758,吴塆水库,安徽省,地名地址信息;自然地名;湖泊
金寨县,,六安市,31.317239470874448,115.47891571660757,大西冲水库,安徽省,地名地址信息;自然地名;湖泊
金寨县,,六安市,31.676435979767504,115.9969290202256,响水沟水库,安徽省,地名地址信息;自然地名;湖泊
金寨县,,六安市,31.73531531431854,115.82967199295427,大龙井水库,安徽省,地名地址信息;自然地名;湖泊
金寨县,,六安市,31.32089465688025,115.44769032860398,楼房水库,安徽省,地名地址信息;自然地名;湖泊
金寨县,,六安市,31.33822221519577,115.61054393464366,南河水库,安徽省,地名地址信息;自然地名;湖泊
金寨县,,六安市,31.490360750175643,116.11755647687978,傅塆水库,安徽省,地名地址信息;自然地名;湖泊
金寨县,,六安市,31.449183437549394,115.7034922800661,界岭水库,安徽省,地名地址信息;自然地名;湖泊
金寨县,,六安市,31.417960116675133,115.5914451156465,刘塆水库,安徽省,地名地址信息;自然地名;湖泊
金寨县,,六安市,31.42533367205878,115.51396881764033,河坪水库,安徽省,地名地址信息;自然地名;湖泊
金寨县,,六安市,31.57836764416054,115.96746671283528,元冲水库,安徽省,地名地址信息;自然地名;湖泊
金寨县,,六安市,31.561888989031765,115.95069075475249,油店水库,安徽省,地名地址信息;自然地名;湖泊
金寨县,,六安市,31.519998062345497,115.8866460145421,深沟水库,安徽省,地名地址信息;自然地名;湖泊
金寨县,,六安市,31.549583668466834,115.83114416812583,响潭水库,安徽省,地名地址信息;自然地名;湖泊
金寨县,,六安市,31.509945199586845,115.83116870182931,傅塆水库,安徽省,地名地址信息;自然地名;湖泊
金寨县,,六安市,31.5684378361765,115.8606574421063,板棚水库,安徽省,地名地址信息;自然地名;湖泊
金寨县,,六安市,31.5712121867326,115.58628551390795,燕岩水库,安徽省,地名地址信息;自然地名;湖泊
金寨县,,六安市,31.515919949620177,115.59664145697681,红河水库,安徽省,地名地址信息;自然地名;湖泊
金寨县,,六安市,31.55391813926685,115.56391263063725,葛山水库,安徽省,地名地址信息;自然地名;湖泊
金寨县,,六安市,31.590036419283944,115.85413078555726,兴田水库,安徽省,地名地址信息;自然地名;湖泊
金寨县,,六安市,31.66145934465006,115.54731945045319,金刚水库,安徽省,地名地址信息;自然地名;湖泊
金寨县,,六安市,31.721819921539787,116.00541280839391,九树水库,安徽省,地名地址信息;自然地名;湖泊
金寨县,,六安市,31.697632400105903,116.08136656434377,大岗水库,安徽省,地名地址信息;自然地名;湖泊
金寨县,,六安市,31.707753489851456,115.79394813950684,天寨水库,安徽省,地名地址信息;自然地名;湖泊
金寨县,,六安市,31.26889090447331,116.00525960816772,猫耳石水库,安徽省,地名地址信息;自然地名;湖泊
金寨县,,六安市,31.470400999472485,115.68173560118753,门前水库,安徽省,地名地址信息;自然地名;湖泊
金寨县,,六安市,31.618879723531112,115.71990058748631,关门口水库,安徽省,地名地址信息;自然地名;湖泊
金寨县,,六安市,31.722059227201697,115.87285396903695,小龙井水库,安徽省,地名地址信息;自然地名;湖泊
金寨县,,六安市,31.76615772923415,115.95432858401578,金山水库,安徽省,地名地址信息;自然地名;湖泊
金寨县,,六安市,31.329359701340053,115.48426053681644,徐家山水库,安徽省,地名地址信息;自然地名;湖泊
金寨县,,六安市,31.297249699651534,115.64195321640749,泗洲岩水库,安徽省,地名地址信息;自然地名;湖泊
金寨县,,六安市,31.445569518069735,115.77583548629966,红颜河水库,安徽省,地名地址信息;自然地名;湖泊
金寨县,,六安市,31.47605226585396,116.03025969020523,响洪甸水库,安徽省,地名地址信息;自然地名;湖泊
金寨县,,六安市,31.224200420573382,115.56894525791905,黄金堰水库,安徽省,地名地址信息;自然地名;湖泊
金寨县,,六安市,31.25226047470683,115.63637899276179,二道河水库,安徽省,地名地址信息;自然地名;湖泊
金寨县,,六安市,31.256016490261203,115.55050658539504,黑泥榜水库,安徽省,地名地址信息;自然地名;湖泊
金寨县,,六安市,31.65502619027855,115.89870022325807,梅山水库,安徽省,地名地址信息;自然地名;湖泊
金寨县,,六安市,31.730611384753523,115.87207498953396,棺材石沟水库,安徽省,地名地址信息;自然地名;湖泊
金寨县,,六安市,31.563570688995775,116.06524835194674,响洪甸水库,安徽省,地名地址信息;自然地名;湖泊
梅山水库管理处,,六安市,31.66917364088778,115.88429569552095,梅山水库风景区,安徽省,风景名胜;风景名胜;风景名胜
麻埠镇,,六安市,31.573952562804088,116.05967781558155,响洪甸水库,安徽省,风景名胜;风景名胜;国家级景点
014县道,,六安市,31.553722145484922,116.15200860997462,响洪甸风景区,安徽省,风景名胜;风景名胜;国家级景点
叶集区,,六安市,31.854220792345703,115.99177409388307,东风水库,安徽省,地名地址信息;自然地名;自然地名
叶集区,,六安市,31.87296779527275,116.01859615776812,仓房水库,安徽省,地名地址信息;自然地名;湖泊
叶集区,,六安市,31.793574412563203,116.1630990740956,献礼水库,安徽省,地名地址信息;自然地名;湖泊
舒城县,,六安市,31.295365356644464,116.58680546343903,白石桥水库,安徽省,地名地址信息;自然地名;湖泊
舒城县,,六安市,31.243974408479858,116.89027963998326,葫芦冲水库,安徽省,地名地址信息;自然地名;湖泊
舒城县,,六安市,31.314533259839287,117.02155150806816,916水库,安徽省,地名地址信息;地名地址信息;地名地址信息
舒城县,,六安市,31.22929954951208,116.58334542006288,罗中水库,安徽省,地名地址信息;自然地名;湖泊
舒城县,,六安市,31.291854714675242,116.6667286341104,窑湾水库,安徽省,地名地址信息;自然地名;湖泊
舒城县,,六安市,31.28780809985721,116.63624381684171,杨湾水库,安徽省,地名地址信息;自然地名;湖泊
舒城县,,六安市,31.35676277028667,116.68059784025361,关口水库,安徽省,地名地址信息;自然地名;湖泊
,,六安市,31.466200500455344,117.1179369747957,江家大棚水库,安徽省,地名地址信息;自然地名;湖泊
舒城县,,六安市,31.301550570163243,116.64595415880133,乌龟湾水库,安徽省,地名地址信息;自然地名;湖泊
舒城县,,六安市,31.31002116778845,116.72857275410317,龙河口水库,安徽省,地名地址信息;自然地名;湖泊
舒城县,,六安市,31.30006310759015,116.71460106856514,狮子山水库,安徽省,地名地址信息;地名地址信息;地名地址信息
舒城县,,六安市,31.19723022639217,116.94219284301947,东方红水库,安徽省,地名地址信息;自然地名;湖泊
万佛湖风景区,,六安市,31.295119707229507,116.75240451359633,万佛湖风景区,安徽省,风景名胜;风景名胜;国家级景点
