address,business_area,cityname,lat,lon,name,pname,type
徐集镇文化街徐集中学附近,,六安市,31.836392825563813,116.35171462985642,徐集中学-六安市工业学校,安徽省,科教文化服务;学校;职业技术学校
苏埠镇大巷村,,六安市,31.66949787129471,116.43369557441093,六安戚桥中学,安徽省,科教文化服务;学校;中学
西河口乡,,六安市,31.5039806133425,116.21281464236922,龙门初级中学,安徽省,科教文化服务;学校;中学
丁集镇华祖学校西北门旁,,六安市,31.91470467312852,116.29699161683207,华祖中学,安徽省,科教文化服务;学校;中学
009县道与018县道交叉口西南160米,,六安市,31.753578041794118,116.25198315273661,南岳庙初级中学,安徽省,科教文化服务;学校;中学
010县道与三赵路交叉口西南220米,,六安市,31.822458069026332,116.26962501382238,江家店镇初级中学,安徽省,科教文化服务;学校;中学
独山镇西河口乡六安市公安局西河口派出所西南,,六安市,31.55995200251113,116.2745377147945,西河口初级中学,安徽省,科教文化服务;学校;中学
独山大桥独山镇,,六安市,31.60236899208793,116.22056238181473,六安市裕安区天峰初级中学,安徽省,科教文化服务;学校;中学
苏埠镇苏戚路,,六安市,31.632389495816025,116.3677681458295,苏南中学,安徽省,科教文化服务;学校;中学
独山镇,,六安市,31.606242633552085,116.13466270361361,六安市裕安区同兴寺初级中学,安徽省,科教文化服务;学校;中学
莲香路398号,,六安市,31.781718643467677,116.47315150388133,六安实验中学初中部,安徽省,科教文化服务;科教文化场所;科教文化场所
单王乡单王村,,六安市,32.003660013465236,116.47986483324223,单王中学,安徽省,科教文化服务;学校;中学
姚李镇林寨村,,六安市,31.789920825277584,116.20601353415128,宏立中学,安徽省,科教文化服务;学校;中学
狮子岗乡查婆店村,,六安市,31.705441392533217,116.25805418754288,狮子岗中学,安徽省,科教文化服务;学校;中学
石婆店镇石婆店,,六安市,31.71055717048943,116.16650623777473,骆家庵中学,安徽省,科教文化服务;学校;中学
徐集镇文化街,,六安市,31.836426798634683,116.35173559061113,徐集中学,安徽省,科教文化服务;学校;中学
长安南路138号,,六安市,31.731858919791534,116.5029718882743,安徽省皖西中学,安徽省,科教文化服务;学校;中学
独山街,,六安市,31.615943150331436,116.21571031329711,六安市独山中学,安徽省,科教文化服务;学校;中学
010县道附近,,六安市,31.789574476171133,116.42078314006206,皖西中学分校,安徽省,科教文化服务;学校;中学
罗集乡松岗街道,,六安市,31.95973735594202,116.27625837489987,裕安区松岗学校,安徽省,科教文化服务;学校;中学
六霍路与038乡道交叉口东南150米,,六安市,32.01233153827324,116.31829371494092,六安市裕安区固镇镇中心学校,安徽省,科教文化服务;学校;中学
独山镇双庙村,,六安市,31.612709752667296,116.28568243239121,六安市龙井初级中学,安徽省,科教文化服务;学校;中学
丁集镇丁南村,,六安市,31.928631906764906,116.35066307424337,登科学校,安徽省,科教文化服务;学校;中学
徐集镇徐分路21号,,六安市,31.828637995415743,116.35008817175806,六安市登科中学,安徽省,科教文化服务;学校;中学
010县道与016县道交叉口东北200米,,六安市,31.820719196265575,116.22076132170326,挥手学校,安徽省,科教文化服务;学校;中学
新安镇017县道,,六安市,31.858765396245882,116.49364478159505,新安中学(第二校区),安徽省,科教文化服务;学校;中学
009县道与319乡道交叉口西140米,,六安市,31.778323224557028,116.38159474755051,裕安区分路口镇淠联学校,安徽省,科教文化服务;学校;中学
星河路231号,,六安市,31.69466336828927,116.46232446690556,六安市裕安区城南镇中心学校,安徽省,科教文化服务;学校;中学
青山路83号,,六安市,31.724653197880905,116.46804931680282,六安市裕安区青山路初级中学,安徽省,科教文化服务;学校;中学
经济开发区青山乡,,六安市,31.552932811226647,116.37639816579377,裕安区青山乡青山学校,安徽省,科教文化服务;学校;中学
016县道与002乡道交叉口东南380米,,六安市,31.977348832453274,116.41936528545814,裕安区郭店学校,安徽省,科教文化服务;学校;中学
016县道与128乡道交叉口西南180米,,六安市,31.906676294255675,116.23495709137796,裕安区罗集初级中学,安徽省,科教文化服务;学校;中学
新安西大街社区,,六安市,31.85966459815572,116.47598782155599,新安初中,安徽省,科教文化服务;学校;中学
374乡道,,六安市,31.712619410665518,116.40083770067126,裕安区陆集学校,安徽省,科教文化服务;学校;学校
城南大道,,六安市,31.67987856766019,116.47563566845166,六安市裕安区宝丰寺学校,安徽省,科教文化服务;学校;中学
062乡道附近,,六安市,31.927093940787277,116.47871283468426,顺河初级中学,安徽省,科教文化服务;学校;中学
001县道附近,,六安市,31.618659643816642,116.31408169285962,石板冲乡初级中学,安徽省,科教文化服务;学校;中学
新安镇,,六安市,31.860631244365543,116.49513774811706,安徽省示范高中,安徽省,科教文化服务;学校;中学
大别山路70号,,六安市,31.751347125172572,116.45375090867073,六安市大别山路学校,安徽省,科教文化服务;学校;中学
清溪路123号,,六安市,31.788769096960298,116.47399060288924,安徽省六安市第二中学河西校区,安徽省,科教文化服务;学校;中学
环城西路(新安大桥西侧),,六安市,31.790539543846386,116.46298788417154,安徽省六安实验中学,安徽省,科教文化服务;学校;中学
南河大道,,六安市,31.705133718503244,116.46056131335777,裕安中学,安徽省,科教文化服务;学校;中学
苏横路与凯旋大道交叉口西南40米,,六安市,31.63085363631396,116.35766941899796,六安市裕安区苏埠镇中心学校,安徽省,科教文化服务;学校;中学|科教文化服务;培训机构;培训机构
[],,六安市,31.637834670843436,116.35633390040847,六安市裕安区苏埠镇第一小学,安徽省,科教文化服务;学校;中学
001县道,,六安市,31.61865960424116,116.31410265060374,六安市石板冲初中,安徽省,科教文化服务;学校;中学
单王乡胡台村,,六安市,32.050008472802254,116.52340191165358,张湾中学,安徽省,科教文化服务;学校;中学
城南镇磨子潭路,,六安市,31.704784892512688,116.46678113395168,六安市城南中学,安徽省,科教文化服务;学校;中学
平桥路与齐云西路交叉口西北角,,六安市,31.744007711390996,116.47181053447629,六安市第九中学,安徽省,科教文化服务;学校;中学
分路口镇收费站旁,,六安市,31.75629340117911,116.32214288062296,六安新世纪学校,安徽省,科教文化服务;学校;中学
[],,六安市,31.861262507761246,116.49818916546533,六安市新安中学,安徽省,科教文化服务;学校;中学
徐集镇裕安区,,六安市,31.84515325047519,116.35509814268124,徐集镇初级中学,安徽省,科教文化服务;学校;中学
152乡道城西小学附近,,六安市,31.808346655872075,116.47935156640555,城西中学,安徽省,科教文化服务;学校;中学
经济开发区将军路,,六安市,31.738896167476,116.46213394803904,六安振华职业中专学校,安徽省,科教文化服务;学校;职业技术学校
顺河镇安城村,,六安市,31.964899450835283,116.48817755340187,安城中学,安徽省,科教文化服务;学校;中学
分路口镇街道油坊村,,六安市,31.747295268531396,116.31952309051817,分路口初级中学,安徽省,科教文化服务;学校;中学
韩摆渡镇,,六安市,31.67160663028149,116.34701289282125,韩摆渡中学,安徽省,科教文化服务;学校;中学
青山乡,,六安市,31.55358689018013,116.37624024726503,裕安区青山乡青山初中,安徽省,科教文化服务;学校;中学
解放中路462号,,六安市,31.764078270926813,116.49337523781627,六安市轻工中学,安徽省,科教文化服务;学校;中学
009县道与319乡道交叉口西北180米,,六安市,31.778734332895144,116.38152275795643,淠联初级中学,安徽省,科教文化服务;学校;中学
石婆店镇婆店镇,,六安市,31.666490584555866,116.14236738938091,裕安中学石婆店校区,安徽省,科教文化服务;学校;中学
霍山路与黄巢尖路交叉口东20米,,六安市,31.72025432852079,116.47510634713655,皋德职校,安徽省,科教文化服务;学校;职业技术学校
春华路与金园路交口,,六安市,31.70312941203253,116.48396344201244,春华路学校,安徽省,科教文化服务;学校;中学
育才路与019县道交叉口西南160米,,六安市,31.612941838448727,116.21442660792825,裕安中学旁优质学区房,安徽省,科教文化服务;科教文化场所;科教文化场所
独山路82号,,六安市,31.788883908022903,116.42034664871018,六安市裕安区平桥乡高皇学校,安徽省,科教文化服务;学校;中学
长安南路与南华路交叉口东280米,,六安市,31.73204110429175,116.50336420087558,安徽省皖西中学(初中部),安徽省,科教文化服务;学校;中学
011县道与卫大尖路交叉口东180米,,六安市,31.612204275766757,116.28602598986475,裕安区独山镇龙井初中,安徽省,科教文化服务;学校;中学
016县道与092乡道交叉口西南200米,,六安市,31.943603315470863,116.35514410766656,裕安区丁集学校,安徽省,科教文化服务;学校;中学
大海超市斜对面(245省道东),,六安市,32.010973458228655,116.36576326251777,六安市钱集初中,安徽省,科教文化服务;学校;中学
城南大道与创新路交叉口东北100米,,六安市,31.67977882586507,116.47502467443118,六安九中开发区校区,安徽省,科教文化服务;科教文化场所;科教文化场所
莲香路与七门堰路交叉口西南140米,,六安市,31.77586271419379,116.4661939724043,赤壁路初级中学(建设中),安徽省,科教文化服务;学校;中学
[],,六安市,32.32061109631459,116.27879092345546,霍邱正华外语学校,安徽省,科教文化服务;学校;中学
东环路,,六安市,32.32488955655277,116.28819281798125,霍邱县育英学校,安徽省,科教文化服务;学校;中学
[],,六安市,32.04925360851102,116.24143798986671,夏店中心学校,安徽省,科教文化服务;学校;中学
花园镇刘李街道,,六安市,32.09279671670264,116.42005256139825,霍邱县花园镇刘李中学,安徽省,科教文化服务;学校;中学
孟集镇孟集街道,,六安市,32.18942328718333,116.41532233060302,孟集镇润萌学校,安徽省,科教文化服务;学校;中学
宋店乡俞林村,,六安市,32.25851595768215,116.24455423440631,俞林中学,安徽省,科教文化服务;学校;中学
石店街道与淮海路交叉口西300米,,六安市,32.26944581005638,116.02597053532257,石店育才学校,安徽省,科教文化服务;学校;中学
孟集镇郭圩街道,,六安市,32.24589542477477,116.42396575021563,孟集镇王圩中学,安徽省,科教文化服务;学校;中学
河口镇杨窑路河口中学,,六安市,32.135854315610054,116.09239351930506,霍邱县河口中学,安徽省,科教文化服务;学校;中学
城关镇平安驾校北100米,,六安市,32.34908058351416,116.29661093139505,新店镇初级中学,安徽省,科教文化服务;学校;中学
龙潭镇105国道好又多超市,,六安市,32.19938373985081,115.98877420669137,霍邱县龙潭镇中心学校,安徽省,科教文化服务;学校;中学
035县道与长沟路交叉口东160米,,六安市,32.08338767682745,116.09119193700514,霍邱县乌龙镇陡岗学校,安徽省,科教文化服务;科教文化场所;科教文化场所
周集镇周集街道,,六安市,32.49275906111125,116.01619112753933,霍邱县周集中学,安徽省,科教文化服务;学校;中学
孟集镇,,六安市,32.13746907907709,116.38472002692289,孟集镇中心店初中,安徽省,科教文化服务;学校;中学
育才路,,六安市,32.342678957887166,116.26993798038228,霍邱县第二中学,安徽省,科教文化服务;学校;中学
周集镇闸上村,,六安市,32.52590276019339,116.08255367814725,分水闸中学,安徽省,科教文化服务;科教文化场所;科教文化场所
高塘镇渠东村,,六安市,32.328796610763305,115.97988167742959,高塘镇吴集中学,安徽省,科教文化服务;学校;中学
[],,六安市,32.44549664800794,116.31739595848647,临淮岗镇初级中学,安徽省,科教文化服务;学校;中学
周集镇燎东村,,六安市,32.50939145089114,116.00337025196163,周集镇开元中学,安徽省,科教文化服务;学校;中学
039县道附近,,六安市,32.51173743730369,116.00023278625594,周集镇中心学校,安徽省,科教文化服务;学校;中学
马店镇西大街,,六安市,32.27208327685141,115.95951184944019,金马学校,安徽省,科教文化服务;学校;学校
163乡道西50米,,六安市,32.117666989029836,116.00207026660942,户胡镇中心学校,安徽省,科教文化服务;学校;中学|科教文化服务;学校;小学
彭塔乡左窑路,,六安市,32.11451784771118,116.47719092990071,彭塔中心学校,安徽省,科教文化服务;学校;中学
曹庙镇吴阳集,,六安市,31.993630916777622,116.24542425289506,霍邱县吴阳初中,安徽省,科教文化服务;学校;中学
[],,六安市,32.29293266581567,116.43284517990999,潘集中学,安徽省,科教文化服务;学校;中学
冯井镇杭庙村,,六安市,32.336061333226446,115.92010868912809,霍邱县冯井镇杭庙初级中学,安徽省,科教文化服务;学校;中学
下骆山路,,六安市,32.30986553717749,116.27551959776928,霍邱县文峰高级中学,安徽省,科教文化服务;学校;中学
大成路霍邱中学,,六安市,32.35306199905748,116.28302261271178,霍邱县农机校初中部,安徽省,科教文化服务;学校;中学
105国道与015乡道交叉口西220米,,六安市,32.48551961956813,115.97356708609412,富矿子弟学校,安徽省,科教文化服务;学校;中学
众兴集路与洪集路交叉口东160米,,六安市,32.31504936731793,116.25938812128159,霍邱县第一中学城南分校,安徽省,科教文化服务;学校;中学
135乡道与310省道交叉口西南160米,,六安市,32.20249597046313,116.23340043193316,霍邱县宋店乡中心学校,安徽省,科教文化服务;学校;中学
范桥镇代店初级中学,,六安市,32.46213164027387,115.98838040354806,霍邱县范桥镇代店初级中学,安徽省,科教文化服务;学校;中学
冯瓴乡22,,六安市,32.27200028009654,116.51106006121182,沈台初级中学,安徽省,科教文化服务;学校;中学
霍邱二院旁边,,六安市,32.270173166920486,116.0262367609902,育才中学,安徽省,科教文化服务;学校;中学
纬十二路与规划路交叉口南20米,,六安市,32.32178066567155,116.27997937650059,正华学校高中部,安徽省,科教文化服务;学校;中学
城关镇双惠家园北七里,,六安市,32.38854233709952,116.27704476492964,霍邱县诚信实验中学,安徽省,科教文化服务;学校;中学
明德路与顺河街交叉口北380米,,六安市,32.406462901903765,116.03092101955372,霍邱县高塘镇中心学校,安徽省,科教文化服务;学校;中学
双湖东路,,六安市,32.34263797412542,116.29516101137501,霍邱县第三中学,安徽省,科教文化服务;科教文化场所;科教文化场所
京澳线马店中学,,六安市,32.278879014843575,115.96553347161503,霍邱县马店镇中心学校,安徽省,科教文化服务;学校;中学
城关镇蓼城路96号,,六安市,32.34082853402746,116.29419281064814,霍邱县第一中学,安徽省,科教文化服务;学校;中学
王截流乡陈郢村,,六安市,32.46688408154479,116.11107563992996,霍邱县陈郢学校,安徽省,科教文化服务;学校;学校
城关镇东湖路,,六安市,32.329612038574076,116.28292487883438,霍邱农机校初中,安徽省,科教文化服务;学校;中学
众兴镇西皋街道,,六安市,31.969604330729663,116.10606587621638,西皋学校,安徽省,科教文化服务;学校;中学
扈胡镇高镇中学,,六安市,32.04961658859082,115.95141408301002,霍邱县高镇中学,安徽省,科教文化服务;学校;中学
石店镇五塔街道,,六安市,32.351193439320106,116.10656608695929,五塔中学,安徽省,科教文化服务;科教文化场所;科教文化场所
新店镇唐店子,,六安市,32.37725879758414,116.30755806245942,霍邱县兴华中学,安徽省,科教文化服务;学校;中学
310省道东150米,,六安市,32.4148686274519,116.38719816095482,安徽省霍邱县新店镇初级中学,安徽省,科教文化服务;学校;中学
141乡道与310省道交叉口东北100米,,六安市,32.13752532904243,116.21126471875566,岔路镇中心学校,安徽省,科教文化服务;学校;中学
冯瓴镇,,六安市,32.19078355544578,116.44347101785189,新仓学校,安徽省,科教文化服务;学校;中学
蓼城路372号,,六安市,32.35367202475132,116.28447557540969,霍邱中学,安徽省,科教文化服务;学校;中学
冯瓴镇桃园村,,六安市,32.27200133522202,116.51107912402654,沈台中学,安徽省,科教文化服务;学校;中学
周集镇,,六安市,32.57885236079686,115.99246787871027,朱港二中,安徽省,科教文化服务;学校;中学
众兴集镇街道,,六安市,32.010295218545764,116.13474221608082,霍邱县众兴集镇中心学校,安徽省,科教文化服务;学校;中学
245省道与017县道交叉口西北180米,,六安市,32.36982115500459,116.45957525733667,霍邱县潘集镇左王初中,安徽省,科教文化服务;学校;中学
163乡道东50米,,六安市,32.083193989465,116.16692469952433,长集镇中心学校,安徽省,科教文化服务;学校;中学
长集镇长集街道文昌路40号,,六安市,32.065125236829985,116.16969644391163,霍邱县长集中学,安徽省,科教文化服务;学校;中学
城关镇五岳路第二中学附近,,六安市,32.330642681857476,116.26272812224379,霍邱县第二中学,安徽省,科教文化服务;学校;中学
河口镇,,六安市,32.12193553542718,116.0653151470462,草楼初级中学,安徽省,科教文化服务;学校;中学
马店镇,,六安市,32.27866732887267,115.96578181779056,马店中学,安徽省,科教文化服务;学校;中学
白莲乡,,六安市,32.22523883039065,116.03956248773221,牛集中学,安徽省,科教文化服务;学校;中学
007乡道与赵王路交叉口东南120米,,六安市,32.52942928706566,115.92772088564816,临水李集初中,安徽省,科教文化服务;学校;中学
经济开发区白庙街道,,六安市,32.35373678350928,115.94695638403442,安徽霍邱经济开发区白庙初级中学,安徽省,科教文化服务;学校;中学
五岳路,,六安市,32.330432851436704,116.26247327937044,霍邱二中初中部,安徽省,科教文化服务;学校;中学
众兴集镇政府,,六安市,32.010397348313575,116.1348133586817,众兴集中学,安徽省,科教文化服务;学校;中学
026县道附近,,六安市,32.13016833880843,116.50669519004387,彭塔乡初级中学,安徽省,科教文化服务;学校;中学
037县道东100米,,六安市,32.15895701495438,116.31004710403681,三流中学,安徽省,科教文化服务;学校;中学
039县道附近,,六安市,32.50586639787237,115.96351327244784,宏志实验中学,安徽省,科教文化服务;学校;中学
二黄路,,六安市,31.622611047736818,116.67788731730099,六安市孙岗高级职业中学,安徽省,科教文化服务;学校;职业技术学校
六安开发区新城二路与正阳路交汇处西北角,,六安市,31.82760723115514,116.53963106890761,安徽省六安外国语学校,安徽省,科教文化服务;学校;中学
前进路,,六安市,31.531712353182275,116.58126392307375,六安市张店中学,安徽省,科教文化服务;学校;中学
解放中路699号,,六安市,31.775021851818217,116.49671874921873,安徽省六安第一中学(老校区),安徽省,科教文化服务;学校;中学
双河镇,,六安市,31.50584313207297,116.74678011413582,金安区九十铺中学,安徽省,科教文化服务;学校;中学
皖西大道767号,,六安市,31.756609749362415,116.53064167266362,安徽省六安第一中学东校区,安徽省,科教文化服务;学校;中学
皖西大道经二路,,六安市,31.763655921106267,116.54385062092206,安徽省六安中学,安徽省,科教文化服务;学校;中学
东桥镇006县道东50米,,六安市,31.911308267092043,116.67644739618385,东桥初级中学,安徽省,科教文化服务;学校;中学
016乡道与迎宾大道交叉口西南160米,,六安市,31.6638155051419,116.597359945652,范庵初级中学,安徽省,科教文化服务;科教文化场所;科教文化场所
光明路245号,,六安市,31.770503967179803,116.49931704429889,六安市汇文中学,安徽省,科教文化服务;学校;中学
三十铺镇和平路443号,,六安市,31.77758306665661,116.62798765071119,六安市汇文学校,安徽省,科教文化服务;学校;中学
梅山北路皋城中学对面状元楼,,六安市,31.768553265974028,116.49917573334479,六安皋城中学,安徽省,科教文化服务;学校;中学
大别山路44号,,六安市,31.749242225885958,116.49702106049034,六安第二中学,安徽省,科教文化服务;学校;中学
东桥镇潘店街道,,六安市,31.85635592513957,116.64592394178145,潘店中学,安徽省,科教文化服务;学校;中学
周集路与九里沟路交汇处西北角,,六安市,31.792267195131046,116.51081981664774,六安市清水河学校初中部,安徽省,科教文化服务;学校;中学
施桥镇惠明路,,六安市,31.533494116598007,116.70196108735271,六安市金安区施桥初级中学,安徽省,科教文化服务;学校;中学
松林路与金安大道交汇处东北100米,,六安市,31.776364738753244,116.62251922697071,六安市智恒中学,安徽省,科教文化服务;学校;中学
皋城西路291号,,六安市,31.764139077884614,116.49631231592687,六安市田家炳实验中学,安徽省,科教文化服务;学校;中学
孙岗镇椿大路,,六安市,31.60915426962517,116.725277180743,金安区孙岗镇许小河学校,安徽省,科教文化服务;学校;中学
东三十铺镇四十铺村,,六安市,31.77806442636028,116.69056060067295,枣树中学,安徽省,科教文化服务;学校;中学
梅山南路与丹桂路交叉口,,六安市,31.686562248724528,116.54117807527103,汇文中学南山校区,安徽省,科教文化服务;学校;中学
梅山南路729号,,六安市,31.688228762399117,116.54182847532101,汇文中学,安徽省,科教文化服务;学校;中学
锦绣路与南山大道交叉口,,六安市,31.7075268083999,116.54904272442023,安徽省六安第一中学,安徽省,科教文化服务;学校;中学
石笋路与大柳树巷交叉口北180米,,六安市,31.35389630959718,116.56903929084693,六安市毛坦厂中学,安徽省,科教文化服务;学校;中学
安徽省 六安市 金安区 003县道,,六安市,31.722759642267295,116.59818545222346,六安市金安区先生店乡中心学校,安徽省,科教文化服务;学校;中学
郝岗路,,六安市,31.746435603241643,116.53151297172006,六安市毛坦厂中学实验学校,安徽省,科教文化服务;学校;中学
正阳路西100米,,六安市,31.775339170834165,116.53638044098805,六安经济技术开发区皋陶学校,安徽省,科教文化服务;学校;中学
东苑路378号,,六安市,31.754499649047336,116.52149007464872,六安皋城中学金安路校区,安徽省,科教文化服务;学校;中学
三十铺镇金铺商贸城,,六安市,31.769297369163194,116.63658938967791,六安市三十铺学校,安徽省,科教文化服务;学校;中学
G237马头镇中心学校,,六安市,31.97816592469143,116.59095156955401,金安区马头镇十字路初级中学,安徽省,科教文化服务;学校;中学
城北乡迎宾大道路,,六安市,31.822431365470024,116.52718510463367,金安区城北乡中心学校,安徽省,科教文化服务;科教文化场所;科教文化场所
中店乡汪神村,,六安市,31.659415690010384,116.55288340647789,中店乡汪神学校,安徽省,科教文化服务;学校;中学
汉王路与二元路交叉口西南,,六安市,31.762677883924443,116.64187744588774,毛坦厂中学东城校区附属学校,安徽省,科教文化服务;科教文化场所;科教文化场所
金铺商贸城A4楼109号,,六安市,31.773318366879575,116.63436066262706,三十铺镇七彩路幼儿园,安徽省,科教文化服务;学校;幼儿园
张店镇,,六安市,31.48270658635395,116.58179132293586,太平桥初级中学,安徽省,科教文化服务;学校;中学
木厂镇旗杆村刘岗头,,六安市,31.935105459751693,116.52101176564906,六安金穗初级中学,安徽省,科教文化服务;学校;中学
皋城东路378号,,六安市,31.780633936440086,116.66718669649062,六安市毛坦厂中学(东城校区),安徽省,科教文化服务;学校;中学
东河口镇南官亭街道,,六安市,31.425804796987563,116.65648694496657,南官亭中学,安徽省,科教文化服务;学校;中学
松塘路,,六安市,31.533061192076723,116.70125957930748,施桥镇施桥初中,安徽省,科教文化服务;学校;中学
皋陶学校东校区(皖西大道南),,六安市,31.757809172703034,116.58919586616133,皋陶学校(东校区),安徽省,科教文化服务;学校;中学
毛坦厂镇肖山路七号楼四单元,,六安市,31.347767626342154,116.5564525151549,六安市金安中学,安徽省,科教文化服务;学校;中学
双河镇新塘村,,六安市,31.499512352487173,116.77499170930926,金安区新塘中学,安徽省,科教文化服务;学校;中学
皖西大道南150米,,六安市,31.754022206016927,116.52171881515088,六安市金安路学校,安徽省,科教文化服务;学校;中学
石笋路西150米,,六安市,31.35354499878332,116.56863889656766,毛坦厂镇中心学校,安徽省,科教文化服务;学校;中学
学府路1号,,六安市,31.3508687171297,116.55847056406984,六安市毛坦厂中学,安徽省,科教文化服务;学校;中学
施桥镇,,六安市,31.49028293261263,116.67047478190963,陈家河学校,安徽省,科教文化服务;学校;中学
中店乡红旗街道,,六安市,31.602276761363083,116.50934659679788,杨公庙初中,安徽省,科教文化服务;学校;中学
002县道与007县道交汇处200米,,六安市,31.463492444794717,116.73232530362434,施桥镇埠塔寺初中,安徽省,科教文化服务;学校;中学
张店镇凤凰台村,,六安市,31.504862340288785,116.51933214905922,凤凰台初级中学,安徽省,科教文化服务;学校;中学
003乡道西50米,,六安市,31.9238599196376,116.57192800362516,金安区木厂镇潘新初级中学,安徽省,科教文化服务;学校;中学
张店镇双庙村,,六安市,31.581098477409686,116.58680303479761,白塔寺初级中学,安徽省,科教文化服务;科教文化场所;科教文化场所
木厂街道,,六安市,31.92759499190557,116.54833211699994,六安市毛坦厂中学北校区,安徽省,科教文化服务;学校;中学
木厂镇六寿路,,六安市,31.945881528851718,116.56053241864775,金安区菁英中学,安徽省,科教文化服务;学校;中学
椿树镇315省道,,六安市,31.697291829852134,116.71747629589862,椿树镇中心学校,安徽省,科教文化服务;学校;中学
南屏路100号,,六安市,31.75438530736455,116.55254755758727,六安市鹏飞学校,安徽省,科教文化服务;学校;中学
佛子岭东路北50米,,六安市,31.75505197747293,116.54693218138735,六安精美职业中专学校,安徽省,科教文化服务;学校;职业技术学校
六安经济开发区双桥街道,,六安市,31.84788831870964,116.57036614214248,双桥中学,安徽省,科教文化服务;学校;中学
024县道南340米,,六安市,31.872877764306605,116.61924692621591,六安市金安区洞阳初级中学,安徽省,科教文化服务;学校;中学
翁墩村翁墩中学附近,,六安市,31.934803677320538,116.62577586882725,翁墩中学,安徽省,科教文化服务;学校;中学
203省道西50米,,六安市,31.97817592417379,116.59091357356974,马头镇中心学校,安徽省,科教文化服务;学校;中学
皋城东路,,六安市,31.773084536356482,116.63554125167633,六安市三十铺中学,安徽省,科教文化服务;学校;中学
安丰路六安市汽车技术驾驶学校,,六安市,31.762846652706994,116.53270078915725,皖西交通中专学校,安徽省,科教文化服务;学校;职业技术学校
双河镇西街,,六安市,31.553370590176588,116.77461162949001,六安双河中学,安徽省,科教文化服务;学校;中学
马头镇前巷组,,六安市,32.0223529194262,116.55213642431015,金安区马头初中,安徽省,科教文化服务;学校;中学
六安职业技术学院,,六安市,31.835996812365032,116.54100867964353,六安市职业学校(六安职业技术学院中专部),安徽省,科教文化服务;学校;职业技术学校
李公麟路与正阳南路交叉口西160米,,六安市,31.775100807630842,116.53623909681838,皋城中学东校区,安徽省,科教文化服务;科教文化场所;科教文化场所
东桥镇街西李三路东桥初中,,六安市,31.911538530073507,116.67686631221412,金安区东桥镇东桥初中,安徽省,科教文化服务;学校;中学
[],,六安市,31.459269720049434,116.62043097649547,顺河店学校,安徽省,科教文化服务;学校;中学
横塘岗乡,,六安市,31.542308076982902,116.50344208391748,金安区横塘岗初中,安徽省,科教文化服务;学校;中学
三十铺镇倪店村,,六安市,31.811691458708264,116.63096805745697,罗管初级中学,安徽省,科教文化服务;学校;中学
将军山路以东、锦绣路以北,,六安市,31.712436626043036,116.53949274810334,皋城中学南山校区(建设中),安徽省,科教文化服务;学校;中学
三板桥,,六安市,31.414613810965655,116.37275109059756,霍山文峰学校,安徽省,科教文化服务;学校;中学
衡山镇衡山北路48号,,六安市,31.426481906340452,116.30286852828714,安徽省霍山中学,安徽省,科教文化服务;学校;中学
诸佛庵俊卿卫生室对面附近,,六安市,31.4178416546921,116.17494669958249,霍山县诸佛庵中学,安徽省,科教文化服务;科教文化场所;科教文化场所
X066磨子潭中学,,六安市,31.245711594281893,116.34852122499794,霍山县磨子潭镇中心学校,安徽省,科教文化服务;学校;中学
105国道,,六安市,31.47587535040851,116.37277057736128,霍山县下符桥中心学校,安徽省,科教文化服务;学校;中学|科教文化服务;学校;小学
中心小学(105国道北)(与儿街镇西侧),,六安市,31.387729232099264,116.43582793176856,霍山县与儿街中学,安徽省,科教文化服务;学校;中学
同心路,,六安市,31.412231048033796,116.37212495882652,霍山经济开发区中心学校,安徽省,科教文化服务;学校;小学
黑石渡镇,,六安市,31.39418251623647,116.23424077752789,霍山县黑石渡镇中心学校,安徽省,科教文化服务;学校;中学
衡山镇迎驾大道东路96号,,六安市,31.40313661853438,116.33388234692677,安徽省霍山第二中学(东校区),安徽省,科教文化服务;学校;中学
上土市镇上土市村,,六安市,31.14191536747258,115.98728099721485,安徽省霍山上土市中学,安徽省,科教文化服务;学校;中学
东西溪乡105国道,,六安市,31.217684429917018,116.41829741867276,霍山县东西溪乡中心学校,安徽省,科教文化服务;学校;中学
但家庙镇,,六安市,31.459750974476506,116.43782057285033,霍山县但家庙中学,安徽省,科教文化服务;学校;中学
058乡道附近,,六安市,31.06173883687082,115.96235928343586,高山中学,安徽省,科教文化服务;学校;中学
105国道,,六安市,31.475706276763706,116.37186953956916,霍山下符桥福彩初中,安徽省,科教文化服务;学校;中学
(大别山主峰景区),,六安市,31.158177792342304,116.32033371189212,胡家河初级中学,安徽省,科教文化服务;学校;中学
衡山镇衡山北路48号,,六安市,31.404957940826883,116.31614949445401,安徽省霍山第二中学(装修中),安徽省,科教文化服务;学校;中学
057县道西50米,,六安市,31.403912503903506,115.71276777548623,金寨县花石实验学校,安徽省,科教文化服务;学校;小学
江天路206号,,六安市,31.733932056656975,115.9456921176608,安徽省金寨第一中学,安徽省,科教文化服务;学校;中学
双河镇职高路,,六安市,31.615654672002982,115.68684470384717,双河初级中学,安徽省,科教文化服务;学校;中学
麻埠镇洪甸中心学校,,六安市,31.565132347066903,116.16556281540481,金寨县响洪甸实验学校,安徽省,科教文化服务;科教文化场所;科教文化场所
江徐路29号,,六安市,31.726077964667756,115.92282934968466,金江实验学校,安徽省,科教文化服务;学校;中学
金江大道785号,,六安市,31.689915943567915,115.88439599570869,安徽省金寨第二中学,安徽省,科教文化服务;学校;中学
古碑镇槐树湾乡,,六安市,31.49138537808569,115.7551820689083,金寨县双石实验学校,安徽省,科教文化服务;学校;中学
209省道263号,,六安市,31.456700499312163,115.94075164133817,金寨县青山中学,安徽省,科教文化服务;学校;中学
张冲乡,,六安市,31.432957967383476,116.01878123863536,金寨县张冲实验学校,安徽省,科教文化服务;科教文化场所;科教文化场所
映山红大道122号,,六安市,31.71473765251132,115.92837352763542,金寨县施琅中学,安徽省,科教文化服务;学校;中学
[],,六安市,31.370965157835347,115.45661846810243,沙河中学,安徽省,科教文化服务;学校;中学
南溪镇中学路,,六安市,31.518516274678483,115.61505603696098,南溪中学,安徽省,科教文化服务;学校;中学
映山红大道52号,,六安市,31.71141331288807,115.93363987745747,金寨县思源实验学校,安徽省,科教文化服务;学校;中学
053县道,,六安市,31.365447426392155,115.6181067849309,金寨县果子园实验学校,安徽省,科教文化服务;学校;中学
古碑镇,,六安市,31.470509924689733,115.78134408918854,古碑初级中学,安徽省,科教文化服务;学校;中学
关庙乡关庙村,,六安市,31.500956373250858,115.48541632016683,关庙中学,安徽省,科教文化服务;学校;中学
S210大王庙家附近,,六安市,31.467971685048898,115.64698367755217,丁埠中学,安徽省,科教文化服务;学校;中学
天堂湖路与笔架山路交汇处,,六安市,31.78034165151432,115.98085219296,金寨县弘毅学校,安徽省,科教文化服务;学校;中学
桃岭乡牌坊村,,六安市,31.584684209641157,115.71344898936027,金寨县桃岭实验学校,安徽省,科教文化服务;学校;中学
八一路与中学路交叉口东北500米,,六安市,31.52128734152137,115.6205547997848,金寨县南溪初级中学,安徽省,科教文化服务;学校;中学
铁冲一号桥,,六安市,31.74797058133471,115.6830305269814,铁冲实验学校,安徽省,科教文化服务;学校;中学
古碑镇杜运水产对面,,六安市,31.471247260124816,115.78171973120888,金寨县金才希望中学,安徽省,科教文化服务;学校;中学
新四路与望儿山路交汇处,,六安市,31.754757787247247,115.98528601598875,金寨县仙花实验学校,安徽省,科教文化服务;学校;中学
汤家汇镇X056,,六安市,31.643152564561706,115.53428457017384,金寨县泗河实验初级中学,安徽省,科教文化服务;学校;中学
七岭子,,六安市,31.731368649612335,116.08341723571924,金寨县大岗实验学校,安徽省,科教文化服务;学校;中学
天堂寨镇,,六安市,31.18800055995083,115.78809034002508,金寨县天堂寨初级中学,安徽省,科教文化服务;学校;中学
宋河村三塆组,,六安市,31.375247472596605,115.79657657376521,金寨县水竹坪实验学校,安徽省,科教文化服务;学校;学校
白马峰路363号,,六安市,31.73786142285578,115.93695849790375,金寨现代产业园区实验学校,安徽省,科教文化服务;学校;中学
梅山镇开顺村西井组,,六安市,31.8016883602058,115.9303284882515,金寨县开顺实验学校,安徽省,科教文化服务;学校;学校
全军乡,,六安市,31.702060194049555,115.80712421217189,全军实验学校,安徽省,科教文化服务;学校;中学
013乡道附近,,六安市,31.61758113022284,115.81114089999048,金寨县三合实验学校,安徽省,科教文化服务;学校;中学
白塔畈镇龚店村,,六安市,31.699081437757492,116.02182785404084,龚店实验学校,安徽省,科教文化服务;学校;中学
梅山镇金江大道江店第二小学,,六安市,31.701015233646377,115.90772829682474,映山红中学,安徽省,科教文化服务;学校;中学
053县道与346国道交叉口西南240米,,六安市,31.289807051495195,115.56999707106687,吴家店镇中学学校,安徽省,科教文化服务;科教文化场所;科教文化场所
南溪镇街道三组,,六安市,31.521320636660754,115.62028407037742,金寨县南溪八一中学,安徽省,科教文化服务;学校;中学
209省道263号,,六安市,31.456543515685922,115.94525823384278,金寨县青山实验学校,安徽省,科教文化服务;学校;学校
[],,六安市,31.530146390816757,115.67036743729841,南湾中学,安徽省,科教文化服务;科教文化场所;科教文化场所
油坊店乡中心学校(209省道西)油坊店乡学校附近,,六安市,31.554243968799657,115.9543880756079,金寨县油坊店初级中学,安徽省,科教文化服务;学校;中学
白塔畈乡,,六安市,31.747188545801105,115.99066412697137,金寨县仙花中学,安徽省,科教文化服务;学校;中学
燕子河镇,,六安市,31.292330832625552,115.9488711181749,金寨县燕子河初级中学,安徽省,科教文化服务;学校;中学
石院墙西,,六安市,31.182848220357293,115.88487825247444,金寨县长岭实验学校,安徽省,科教文化服务;科教文化场所;科教文化场所
汤汇路西50米,,六安市,31.607103443605943,115.59013115417002,汤家汇实验学校,安徽省,科教文化服务;学校;中学
麻埠镇016县道,,六安市,31.596466134615216,116.07489700078817,鲜花岭中学,安徽省,科教文化服务;科教文化场所;科教文化场所
斑竹园中学(沪蓉高速公路东),,六安市,31.340916545072012,115.55120280447379,金寨县斑竹园中学,安徽省,科教文化服务;学校;中学
金叶路与莲华山路交叉口,,六安市,31.730052941526367,115.92321065237537,金寨县志成中学(建设中),安徽省,科教文化服务;学校;中学
新固叶路与兴叶大道交叉口西南120米,,六安市,31.86726464523021,115.90086733409629,皖西当代中专,安徽省,科教文化服务;学校;学校
010县道附近,,六安市,31.84603099732625,115.94156610250367,叶集实验学校,安徽省,科教文化服务;学校;中学
姚李镇,,六安市,31.82449806211439,116.16806600306035,新星实验学校(北校区),安徽省,科教文化服务;学校;中学
075乡道与东岳路交叉口西180米,,六安市,31.91587108745549,116.17247301913349,六安市叶集区洪集镇初级中学,安徽省,科教文化服务;学校;中学
莲花北路与漫山红路交叉口东南140米,,六安市,31.816087368300042,116.17170303688958,六安市姚李镇新星实验学校,安徽省,科教文化服务;学校;中学
金叶大道和兴叶大道交叉口,,六安市,31.8566435954844,115.9467032655226,安徽师范大学附属叶集中学,安徽省,科教文化服务;学校;中学
叶集区试验区三元镇沣桥村,,六安市,31.926952782742056,116.05872287679841,三元实验学校,安徽省,科教文化服务;学校;中学
观山北路和花园路交汇处,,六安市,31.861273674191256,115.91450427356516,毛坦厂金安中学分校,安徽省,科教文化服务;学校;中学
三元乡叶集试验区,,六安市,31.94952492500994,116.06008302849351,叶集区三元中学,安徽省,科教文化服务;学校;中学
当代·状元府北门西220米,,六安市,31.862991701837192,115.91363651561886,皖西当代学校,安徽省,科教文化服务;学校;学校
叶集试验区,,六安市,31.87821267774382,115.95477462685328,孙岗中学,安徽省,科教文化服务;学校;中学
姚李镇大顾店道,,六安市,31.811922259235608,116.07648061630715,大顾店中学,安徽省,科教文化服务;学校;中学
371乡道附近,,六安市,31.832089242063713,115.99383866900997,平岗初级中学,安徽省,科教文化服务;学校;中学
孙岗乡叶集试验区,,六安市,31.943290085193457,115.96271111186553,桥店中学,安徽省,科教文化服务;学校;中学
姚李职业高级中学附近,,六安市,31.820058816319296,116.17859402135306,霍邱县姚李中学,安徽省,科教文化服务;学校;中学
姚李镇莲花南路,,六安市,31.81580434181617,116.17332417646236,姚李镇新星实验中学,安徽省,科教文化服务;科教文化场所;科教文化场所
153乡道与油坊路交叉口西南280米,,六安市,31.89363706570478,116.12877565342276,大桥中学,安徽省,科教文化服务;学校;中学
威汕线,,六安市,31.322277860395584,117.02657234150234,舒茶高级职业中学,安徽省,科教文化服务;学校;职业技术学校
百神庙镇元棚村,,六安市,31.466082383181796,117.10239089438207,舒城县周公渡中学,安徽省,科教文化服务;学校;中学
汉寿街AE区,,六安市,31.422726633026038,116.88792245319455,舒城县干汊河中学,安徽省,科教文化服务;学校;中学
南港镇三冲村,,六安市,31.322998404768732,116.98078509563591,沙埂中学,安徽省,科教文化服务;学校;中学
伏虎路1号,,六安市,31.4401258195825,116.93095748964231,舒城中学,安徽省,科教文化服务;学校;中学
043县道与周岗路交叉口西40米,,六安市,31.508075069176847,116.8837329304456,舒城县柏林高级职业中学,安徽省,科教文化服务;学校;职业技术学校
龙舒西路,,六安市,31.462004863987893,116.90939850493933,舒城第二中学,安徽省,科教文化服务;学校;中学
城关镇梅河路411号,,六安市,31.46583085867261,116.94650058728273,舒城第一中学,安徽省,科教文化服务;学校;中学
桃溪中路与春秋北路交叉口西,,六安市,31.470292625651084,116.93024147924544,安徽省舒城第三中学,安徽省,科教文化服务;学校;中学
山七镇,,六安市,31.253859076997845,116.65812772768305,山七镇中心学校,安徽省,科教文化服务;学校;中学
243乡道,,六安市,31.43955581752885,117.02582231058341,白马宕初级中学,安徽省,科教文化服务;学校;中学
百神庙镇052县道东150米,,六安市,31.426443680991376,117.07421679024283,百神庙镇中心学校,安徽省,科教文化服务;科教文化场所;科教文化场所
高峰乡河山路五桥中心学校,,六安市,31.255356901093247,116.71173686994119,舒城县高峰中心学校,安徽省,科教文化服务;科教文化场所;科教文化场所
庐镇乡庐镇街道,,六安市,31.1407329375749,116.7705360843554,庐镇乡中心学校,安徽省,科教文化服务;学校;小学
城关镇阙店乡,,六安市,31.300762620874977,116.81175256599442,舒城县杜店中学,安徽省,科教文化服务;学校;中学
万佛湖镇羊山村,,六安市,31.342961507288788,116.75408719131673,舒城县龙河中学,安徽省,科教文化服务;学校;中学
635乡道与632乡道交叉口东南300米,,六安市,31.379704647138894,116.78274153721618,舒城县八里初级中学,安徽省,科教文化服务;学校;中学
杭埠镇上湖东路,,六安市,31.51968007497378,117.20974163312343,新滨湖寿春实验学校,安徽省,科教文化服务;学校;中学
三石寺村村委员会东南侧180米,,六安市,31.194121514082703,116.66043308145854,燕春初级中学,安徽省,科教文化服务;学校;中学
[],,六安市,31.424864648837197,116.7516921400666,张母桥中学,安徽省,科教文化服务;学校;中学
舒三初级中学西北门旁,,六安市,31.513427623068672,117.2086991794284,舒城二中舒三校区,安徽省,科教文化服务;学校;中学
049县道与063乡道交叉口西150米,,六安市,31.514048975286165,117.14116351108098,舒城二中(杭埠校区),安徽省,科教文化服务;学校;中学
031乡道与317省道交叉口南150米,,六安市,31.435162828151842,116.91826918588022,舒城县城关镇中心学校,安徽省,科教文化服务;学校;中学
南港镇落凤岗(原南港中学),,六安市,31.3817663828221,117.00437473999264,舒城县南港实验学校,安徽省,科教文化服务;学校;中学
姚河村姚河中学,,六安市,31.258632677409256,116.82923599660387,姚河中学-汤池镇中心学校,安徽省,科教文化服务;学校;中学
杭埠镇孙圩三杭路,,六安市,31.513001042103106,117.20899351282085,舒城县舒三初级中学,安徽省,科教文化服务;学校;中学
舒三路1号,,六安市,31.463114527713188,116.95480234147207,舒城二中(东校区),安徽省,科教文化服务;学校;中学
舒城二中宾馆东门旁,,六安市,31.459915924409717,116.94267337723241,启蒙名校·摆渡中学,安徽省,科教文化服务;培训机构;培训机构
318省道与317省道交叉口西南480米,,六安市,31.333792542114804,116.62411681487174,五显镇中心学校,安徽省,科教文化服务;学校;中学
千人桥镇鲍桥村,,六安市,31.47537590001346,117.04360776368534,千人桥中学,安徽省,科教文化服务;学校;中学
春秋乡舒城枫香树长途汽车站西北,,六安市,31.28591174169621,116.87301136585779,文翁中学,安徽省,科教文化服务;学校;中学
043县道附近,,六安市,31.50387403389283,116.91580210593312,石岗中学,安徽省,科教文化服务;学校;中学
舒州初级中学(梅河东路南),,六安市,31.46137851414949,116.96133887567069,舒城县舒州初级中学,安徽省,科教文化服务;学校;中学
柏林乡兴和村,,六安市,31.501702429100032,116.92808650810848,舒城仁峰实验学校,安徽省,科教文化服务;学校;中学
七星学校(南环路东),,六安市,31.352410958656407,116.7176346129745,舒城县七星学校,安徽省,科教文化服务;学校;中学
城关镇孔集街道,,六安市,31.46398080422332,116.98930590709348,舒州中学,安徽省,科教文化服务;学校;中学
城关镇古城北路,,六安市,31.469998821408684,116.94754104814497,安徽省舒城育才学校,安徽省,科教文化服务;学校;中学
汤池镇鲁畈村,,六安市,31.24254077114846,116.88269585764704,舒城汤池中学,安徽省,科教文化服务;学校;中学
棠树乡043县道,,六安市,31.44617483403234,116.80610757669045,舒城县棠树乡中心学校,安徽省,科教文化服务;学校;学校
045县道附近,,六安市,31.203726447450055,116.79820468576933,河棚镇中心学校,安徽省,科教文化服务;学校;中学
880乡道,,六安市,31.494089526940293,116.98231359300344,桃溪中学,安徽省,科教文化服务;学校;中学
332省道与882乡道交叉口东北80米,,六安市,31.183423780768603,116.52069101611235,查湾中心学校,安徽省,科教文化服务;学校;中学
梅苑路与夏院路交叉口西北460米,,六安市,31.339546293643973,116.7616765000186,万佛湖镇中心学校,安徽省,科教文化服务;学校;中学
[],,六安市,31.5489524190971,116.99199320515,舒城县桃溪镇中心学校,安徽省,科教文化服务;学校;中学
千人桥镇五里桥,,六安市,31.50433965700971,117.11195017986938,舒城县重阳中学,安徽省,科教文化服务;学校;中学
柏林乡,,六安市,31.509379769192552,116.88181350209784,柏林职高,安徽省,科教文化服务;学校;职业技术学校
晓天镇三元村,,六安市,31.18764286411002,116.61625026512088,舒城晓天中学,安徽省,科教文化服务;学校;中学
千人桥街道,,六安市,31.477428400282115,117.05243786137228,舒城县千人桥镇中心学校,安徽省,科教文化服务;学校;中学
烟汕线,,六安市,31.383847554972508,116.99030206523356,舒城县南港镇中心学校,安徽省,科教文化服务;学校;中学
480乡道与241省道交叉口西北100米,,六安市,31.11559019999875,116.72954474252965,舒城县洪庙初级中学,安徽省,科教文化服务;学校;中学
千人桥镇三汊河中学,,六安市,31.532825556664946,117.0625708582767,舒城县三汊河中学,安徽省,科教文化服务;科教文化场所;科教文化场所
高峰乡朱湾村青塘组,,六安市,31.256672305055115,116.75435378593926,高峰初级中学,安徽省,科教文化服务;学校;中学
立人路与花园路交叉口东220米,,六安市,31.465527495086196,116.98032714000341,舒城第一中学(新校区)(建设中),安徽省,科教文化服务;学校;中学
